YAOGAN-43 03C           
1 61619U 24190C   26068.54836044  .00000578  00000+0  25482-4 0  9999
2 61619  34.9956 104.7228 0006036 169.7730 190.3109 15.23076374 76625
KUIPER-00155            
1 65774U 25217N   26068.27121362  .00019122  00000+0  81110-3 0  9990
2 65774  51.8785  13.4958 0005405 320.4858  39.5728 15.23116677 25256
